{
  "norad_id": 58679,
  "name": "STARLINK-31110",
  "history": [
    {
      "epoch": "2026-03-28T16:45:24.051456Z",
      "apogee_km": 483.9887194758503,
      "perigee_km": 482.1503277999054,
      "latitude_deg": -6.126227150279511e-06,
      "longitude_deg": -99.70002921419051,
      "height_km": 482.9489450092451,
      "semi_major_axis_km": 6861.206523637878,
      "eccentricity": 0.00013397,
      "inclination_deg": 43.0023,
      "raan_deg": 337.7651,
      "arg_perigee_deg": 263.5955,
      "mean_anomaly_deg": 96.4744,
      "mean_motion_rev_day": 15.27573178
    },
    {
      "epoch": "2026-03-29T02:10:19.398720Z",
      "apogee_km": 484.11350945571576,
      "perigee_km": 481.9138245518743,
      "latitude_deg": 2.946226868446608e-05,
      "longitude_deg": 116.46611938399501,
      "height_km": 482.93538981974757,
      "semi_major_axis_km": 6861.150667003795,
      "eccentricity": 0.0001603,
      "inclination_deg": 43.0024,
      "raan_deg": 335.5485,
      "arg_perigee_deg": 262.444,
      "mean_anomaly_deg": 97.623,
      "mean_motion_rev_day": 15.27591832
    },
    {
      "epoch": "2026-03-30T01:42:40.162752Z",
      "apogee_km": 484.006819413863,
      "perigee_km": 482.0623633848609,
      "latitude_deg": 2.4359689587245496e-05,
      "longitude_deg": 116.87418115589676,
      "height_km": 483.18289584747185,
      "semi_major_axis_km": 6861.171591399362,
      "eccentricity": 0.0001417,
      "inclination_deg": 43.0016,
      "raan_deg": 330.0098,
      "arg_perigee_deg": 247.5319,
      "mean_anomaly_deg": 112.5383,
      "mean_motion_rev_day": 15.27584844
    },
    {
      "epoch": "2026-03-30T01:42:40.163616Z",
      "apogee_km": 484.0067508021475,
      "perigee_km": 482.0624319965773,
      "latitude_deg": 2.363051534065818e-05,
      "longitude_deg": 116.87417676846347,
      "height_km": 483.18286963010155,
      "semi_major_axis_km": 6861.171591399362,
      "eccentricity": 0.00014169,
      "inclination_deg": 43.0016,
      "raan_deg": 330.0098,
      "arg_perigee_deg": 247.5319,
      "mean_anomaly_deg": 112.5383,
      "mean_motion_rev_day": 15.27584844
    },
    {
      "epoch": "2026-03-30T22:06:42.708960Z",
      "apogee_km": 483.9232964533903,
      "perigee_km": 482.21732586754297,
      "latitude_deg": -1.0615128373108236e-05,
      "longitude_deg": 165.22620836452364,
      "height_km": 483.3285998390245,
      "semi_major_axis_km": 6861.207311160466,
      "eccentricity": 0.00012432,
      "inclination_deg": 43.0014,
      "raan_deg": 325.2103,
      "arg_perigee_deg": 235.6075,
      "mean_anomaly_deg": 124.4659,
      "mean_motion_rev_day": 15.27572915
    }
  ]
}